[{"OBJECT_NAME":"COSMOS 2509 (RODNIK-S 15)","OBJECT_ID":"2015-050C","EPOCH":"2026-03-09T22:54:13.887360","MEAN_MOTION":12.42930668,"ECCENTRICITY":0.00133619,"INCLINATION":82.4893,"RA_OF_ASC_NODE":140.0933,"ARG_OF_PERICENTER":255.6578,"MEAN_ANOMALY":104.3019,"EPHEMERIS_TYPE":0,"CLASSIFICATION_TYPE":"U","NORAD_CAT_ID":40922,"ELEMENT_SET_NO":999,"REV_AT_EPOCH":47455,"BSTAR":0.00051118704,"MEAN_MOTION_DOT":8.1e-7,"MEAN_MOTION_DDOT":0},{"OBJECT_NAME":"COSMOS 1589","OBJECT_ID":"1984-084A","EPOCH":"2026-03-09T21:36:13.287456","MEAN_MOTION":12.42254995,"ECCENTRICITY":0.00054298,"INCLINATION":82.5972,"RA_OF_ASC_NODE":216.4658,"ARG_OF_PERICENTER":241.8849,"MEAN_ANOMALY":231.1945,"EPHEMERIS_TYPE":0,"CLASSIFICATION_TYPE":"U","NORAD_CAT_ID":15171,"ELEMENT_SET_NO":999,"REV_AT_EPOCH":88553,"BSTAR":0.00019159693,"MEAN_MOTION_DOT":3.6e-7,"MEAN_MOTION_DDOT":0}]
